SL-8 R/B                
1 11574U 79089B   26115.84007711  .00000220  00000+0  74406-4 0  9992
2 11574  74.0710   3.7634 0015637 167.5885 192.5660 14.42379218442903
SL-14 R/B               
1 11672U 80005B   26115.84077050  .00000598  00000+0  57879-4 0  9997
2 11672  82.5126 262.4932 0015904  11.8424 348.3166 14.90981899483510
SL-8 R/B                
1 12139U 81003B   26115.85608248  .00015719  00000+0  39090-3 0  9990
2 12139  82.9358 246.3384 0256025  14.7723 346.0807 15.12829587321807
SL-3 R/B                
1 12465U 81046B   26115.87796123  .00013358  00000+0  29938-3 0  9998
2 12465  81.2308 233.0240 0018468 212.7180 147.2922 15.43108710445701
SL-3 R/B                
1 12904U 81103B   26115.85561603  .00004941  00000+0  21569-3 0  9991
2 12904  81.1584 158.0919 0014305 125.4493 234.8076 15.21853532980405
SL-3 R/B                
1 13068U 82013B   26115.91154512  .00005644  00000+0  24155-3 0  9993
2 13068  81.1713 105.3968 0022613  24.2901 335.9391 15.22398307411532
SL-3 R/B                
1 13154U 82039B   26115.89765773  .00001646  00000+0  98111-4 0  9993
2 13154  81.1480 161.5053 0028428 163.7418 196.4727 15.10302560388764
SL-3 R/B                
1 13403U 82079B   26115.90616737  .00004957  00000+0  19417-3 0  9990
2 13403  81.1444 137.3050 0024207   9.7299 350.4398 15.25317152384891
SL-14 R/B               
1 13553U 82092B   26115.95849753  .00000471  00000+0  50033-4 0  9999
2 13553  82.5651  97.1694 0021331 140.8429 276.5371 14.86705567335955
SL-3 R/B                
1 13819U 83010B   26115.65165399  .00013926  00000+0  26711-3 0  9993
2 13819  81.1012 304.5985 0015167 241.6612 118.3104 15.47730670365207
SL-3 R/B                
1 14208U 83075B   26115.95694172  .00012486  00000+0  31772-3 0  9999
2 14208  97.6130 122.3652 0022839  63.6209 296.7377 15.39467483337424
COSMOS 1536             
1 14699U 84013A   26115.85834116  .00008491  00000+0  34339-3 0  9992
2 14699  82.5446  60.9300 0016134 113.1726 247.1213 15.24449374279803
SL-14 R/B               
1 14820U 84027B   26115.69395033  .00000360  00000+0  38234-4 0  9991
2 14820  82.5444 200.9369 0018178 172.9630 187.1845 14.86022200254613
SL-8 R/B                
1 15483U 85006B   26115.63315177  .00000168  00000+0  64473-4 0  9990
2 15483  74.0454 174.7711 0017195  76.7104  33.6084 14.37811544160776
SL-12 R/B(2)            
1 15772U 85042D   26115.90077281  .00000117  00000+0  74160-4 0  9990
2 15772  71.1096 347.9868 0033454  49.9443  35.8689 14.21995075121102
SL-14 R/B               
1 15945U 85069B   26115.66432021  .00000339  00000+0  35426-4 0  9999
2 15945  82.5274 340.7717 0019788  40.4614 319.8070 14.86476918179813
SL-16 R/B               
1 16182U 85097B   26115.94630816 -.00000222  00000+0 -87223-4 0  9992
2 16182  71.0044  41.0610 0008087 201.4485 231.7978 14.16606212 93924
