[{"OBJECT_NAME":"SL-8 R/B","OBJECT_ID":"1979-089B","EPOCH":"2026-04-25T20:09:42.662304","MEAN_MOTION":14.42379218,"ECCENTRICITY":0.00156378,"INCLINATION":74.071,"RA_OF_ASC_NODE":3.7634,"ARG_OF_PERICENTER":167.5885,"MEAN_ANOMALY":192.566,"EPHEMERIS_TYPE":0,"CLASSIFICATION_TYPE":"U","NORAD_CAT_ID":11574,"ELEMENT_SET_NO":999,"REV_AT_EPOCH":44290,"BSTAR":7.4406098e-5,"MEAN_MOTION_DOT":2.2e-6,"MEAN_MOTION_DDOT":0},{"OBJECT_NAME":"SL-14 R/B","OBJECT_ID":"1980-005B","EPOCH":"2026-04-25T20:10:42.571200","MEAN_MOTION":14.90981899,"ECCENTRICITY":0.00159049,"INCLINATION":82.5126,"RA_OF_ASC_NODE":262.4932,"ARG_OF_PERICENTER":11.8424,"MEAN_ANOMALY":348.3166,"EPHEMERIS_TYPE":0,"CLASSIFICATION_TYPE":"U","NORAD_CAT_ID":11672,"ELEMENT_SET_NO":999,"REV_AT_EPOCH":48351,"BSTAR":5.7878739e-5,"MEAN_MOTION_DOT":5.98e-6,"MEAN_MOTION_DDOT":0},{"OBJECT_NAME":"SL-8 R/B","OBJECT_ID":"1981-003B","EPOCH":"2026-04-25T20:32:45.526272","MEAN_MOTION":15.12829587,"ECCENTRICITY":0.02560252,"INCLINATION":82.9358,"RA_OF_ASC_NODE":246.3384,"ARG_OF_PERICENTER":14.7723,"MEAN_ANOMALY":346.0807,"EPHEMERIS_TYPE":0,"CLASSIFICATION_TYPE":"U","NORAD_CAT_ID":12139,"ELEMENT_SET_NO":999,"REV_AT_EPOCH":32180,"BSTAR":0.00039090126,"MEAN_MOTION_DOT":0.00015719,"MEAN_MOTION_DDOT":0},{"OBJECT_NAME":"SL-3 R/B","OBJECT_ID":"1981-046B","EPOCH":"2026-04-25T21:04:15.850272","MEAN_MOTION":15.4310871,"ECCENTRICITY":0.00184688,"INCLINATION":81.2308,"RA_OF_ASC_NODE":233.024,"ARG_OF_PERICENTER":212.718,"MEAN_ANOMALY":147.2922,"EPHEMERIS_TYPE":0,"CLASSIFICATION_TYPE":"U","NORAD_CAT_ID":12465,"ELEMENT_SET_NO":999,"REV_AT_EPOCH":44570,"BSTAR":0.00029937859,"MEAN_MOTION_DOT":0.00013358,"MEAN_MOTION_DDOT":0},{"OBJECT_NAME":"SL-3 R/B","OBJECT_ID":"1981-103B","EPOCH":"2026-04-25T20:32:05.224992","MEAN_MOTION":15.21853532,"ECCENTRICITY":0.00143058,"INCLINATION":81.1584,"RA_OF_ASC_NODE":158.0919,"ARG_OF_PERICENTER":125.4493,"MEAN_ANOMALY":234.8076,"EPHEMERIS_TYPE":0,"CLASSIFICATION_TYPE":"U","NORAD_CAT_ID":12904,"ELEMENT_SET_NO":999,"REV_AT_EPOCH":98040,"BSTAR":0.00021569188,"MEAN_MOTION_DOT":4.941e-5,"MEAN_MOTION_DDOT":0},{"OBJECT_NAME":"SL-3 R/B","OBJECT_ID":"1982-013B","EPOCH":"2026-04-25T21:52:37.498368","MEAN_MOTION":15.22398307,"ECCENTRICITY":0.0022613,"INCLINATION":81.1713,"RA_OF_ASC_NODE":105.3968,"ARG_OF_PERICENTER":24.2901,"MEAN_ANOMALY":335.9391,"EPHEMERIS_TYPE":0,"CLASSIFICATION_TYPE":"U","NORAD_CAT_ID":13068,"ELEMENT_SET_NO":999,"REV_AT_EPOCH":41153,"BSTAR":0.00024154597,"MEAN_MOTION_DOT":5.644e-5,"MEAN_MOTION_DDOT":0},{"OBJECT_NAME":"SL-3 R/B","OBJECT_ID":"1982-039B","EPOCH":"2026-04-25T21:32:37.627872","MEAN_MOTION":15.1030256,"ECCENTRICITY":0.00284286,"INCLINATION":81.148,"RA_OF_ASC_NODE":161.5053,"ARG_OF_PERICENTER":163.7418,"MEAN_ANOMALY":196.4727,"EPHEMERIS_TYPE":0,"CLASSIFICATION_TYPE":"U","NORAD_CAT_ID":13154,"ELEMENT_SET_NO":999,"REV_AT_EPOCH":38876,"BSTAR":9.8110509e-5,"MEAN_MOTION_DOT":1.646e-5,"MEAN_MOTION_DDOT":0},{"OBJECT_NAME":"SL-3 R/B","OBJECT_ID":"1982-079B","EPOCH":"2026-04-25T21:44:52.860768","MEAN_MOTION":15.25317152,"ECCENTRICITY":0.00242078,"INCLINATION":81.1444,"RA_OF_ASC_NODE":137.305,"ARG_OF_PERICENTER":9.7299,"MEAN_ANOMALY":350.4398,"EPHEMERIS_TYPE":0,"CLASSIFICATION_TYPE":"U","NORAD_CAT_ID":13403,"ELEMENT_SET_NO":999,"REV_AT_EPOCH":38489,"BSTAR":0.00019416543,"MEAN_MOTION_DOT":4.957e-5,"MEAN_MOTION_DDOT":0},{"OBJECT_NAME":"SL-14 R/B","OBJECT_ID":"1982-092B","EPOCH":"2026-04-25T23:00:14.186592","MEAN_MOTION":14.86705567,"ECCENTRICITY":0.00213313,"INCLINATION":82.5651,"RA_OF_ASC_NODE":97.1694,"ARG_OF_PERICENTER":140.8429,"MEAN_ANOMALY":276.5371,"EPHEMERIS_TYPE":0,"CLASSIFICATION_TYPE":"U","NORAD_CAT_ID":13553,"ELEMENT_SET_NO":999,"REV_AT_EPOCH":33595,"BSTAR":5.0033216e-5,"MEAN_MOTION_DOT":4.71e-6,"MEAN_MOTION_DDOT":0},{"OBJECT_NAME":"SL-3 R/B","OBJECT_ID":"1983-010B","EPOCH":"2026-04-25T15:38:22.904736","MEAN_MOTION":15.4773067,"ECCENTRICITY":0.00151679,"INCLINATION":81.1012,"RA_OF_ASC_NODE":304.5985,"ARG_OF_PERICENTER":241.6612,"MEAN_ANOMALY":118.3104,"EPHEMERIS_TYPE":0,"CLASSIFICATION_TYPE":"U","NORAD_CAT_ID":13819,"ELEMENT_SET_NO":999,"REV_AT_EPOCH":36520,"BSTAR":0.00026711325,"MEAN_MOTION_DOT":0.00013926,"MEAN_MOTION_DDOT":0},{"OBJECT_NAME":"SL-3 R/B","OBJECT_ID":"1983-075B","EPOCH":"2026-04-25T22:57:59.764608","MEAN_MOTION":15.39467483,"ECCENTRICITY":0.00228397,"INCLINATION":97.613,"RA_OF_ASC_NODE":122.3652,"ARG_OF_PERICENTER":63.6209,"MEAN_ANOMALY":296.7377,"EPHEMERIS_TYPE":0,"CLASSIFICATION_TYPE":"U","NORAD_CAT_ID":14208,"ELEMENT_SET_NO":999,"REV_AT_EPOCH":33742,"BSTAR":0.00031771995,"MEAN_MOTION_DOT":0.00012486,"MEAN_MOTION_DDOT":0},{"OBJECT_NAME":"COSMOS 1536","OBJECT_ID":"1984-013A","EPOCH":"2026-04-25T20:36:00.676224","MEAN_MOTION":15.24449374,"ECCENTRICITY":0.00161344,"INCLINATION":82.5446,"RA_OF_ASC_NODE":60.93,"ARG_OF_PERICENTER":113.1726,"MEAN_ANOMALY":247.1213,"EPHEMERIS_TYPE":0,"CLASSIFICATION_TYPE":"U","NORAD_CAT_ID":14699,"ELEMENT_SET_NO":999,"REV_AT_EPOCH":27980,"BSTAR":0.00034339355,"MEAN_MOTION_DOT":8.491e-5,"MEAN_MOTION_DDOT":0},{"OBJECT_NAME":"SL-14 R/B","OBJECT_ID":"1984-027B","EPOCH":"2026-04-25T16:39:17.308512","MEAN_MOTION":14.860222,"ECCENTRICITY":0.00181789,"INCLINATION":82.5444,"RA_OF_ASC_NODE":200.9369,"ARG_OF_PERICENTER":172.963,"MEAN_ANOMALY":187.1845,"EPHEMERIS_TYPE":0,"CLASSIFICATION_TYPE":"U","NORAD_CAT_ID":14820,"ELEMENT_SET_NO":999,"REV_AT_EPOCH":25461,"BSTAR":3.8234091e-5,"MEAN_MOTION_DOT":3.6e-6,"MEAN_MOTION_DDOT":0},{"OBJECT_NAME":"SL-8 R/B","OBJECT_ID":"1985-006B","EPOCH":"2026-04-25T15:11:44.312928","MEAN_MOTION":14.37811544,"ECCENTRICITY":0.00171957,"INCLINATION":74.0454,"RA_OF_ASC_NODE":174.7711,"ARG_OF_PERICENTER":76.7104,"MEAN_ANOMALY":33.6084,"EPHEMERIS_TYPE":0,"CLASSIFICATION_TYPE":"U","NORAD_CAT_ID":15483,"ELEMENT_SET_NO":999,"REV_AT_EPOCH":16077,"BSTAR":6.4472904e-5,"MEAN_MOTION_DOT":1.68e-6,"MEAN_MOTION_DDOT":0},{"OBJECT_NAME":"SL-12 R/B(2)","OBJECT_ID":"1985-042D","EPOCH":"2026-04-25T21:37:06.770784","MEAN_MOTION":14.21995075,"ECCENTRICITY":0.00334542,"INCLINATION":71.1096,"RA_OF_ASC_NODE":347.9868,"ARG_OF_PERICENTER":49.9443,"MEAN_ANOMALY":35.8689,"EPHEMERIS_TYPE":0,"CLASSIFICATION_TYPE":"U","NORAD_CAT_ID":15772,"ELEMENT_SET_NO":999,"REV_AT_EPOCH":12110,"BSTAR":7.4160469e-5,"MEAN_MOTION_DOT":1.17e-6,"MEAN_MOTION_DDOT":0},{"OBJECT_NAME":"SL-14 R/B","OBJECT_ID":"1985-069B","EPOCH":"2026-04-25T15:56:37.266144","MEAN_MOTION":14.86476918,"ECCENTRICITY":0.00197887,"INCLINATION":82.5274,"RA_OF_ASC_NODE":340.7717,"ARG_OF_PERICENTER":40.4614,"MEAN_ANOMALY":319.807,"EPHEMERIS_TYPE":0,"CLASSIFICATION_TYPE":"U","NORAD_CAT_ID":15945,"ELEMENT_SET_NO":999,"REV_AT_EPOCH":17981,"BSTAR":3.5426084e-5,"MEAN_MOTION_DOT":3.39e-6,"MEAN_MOTION_DDOT":0},{"OBJECT_NAME":"SL-16 R/B","OBJECT_ID":"1985-097B","EPOCH":"2026-04-25T22:42:41.025024","MEAN_MOTION":14.16606212,"ECCENTRICITY":0.00080875,"INCLINATION":71.0044,"RA_OF_ASC_NODE":41.061,"ARG_OF_PERICENTER":201.4485,"MEAN_ANOMALY":231.7978,"EPHEMERIS_TYPE":0,"CLASSIFICATION_TYPE":"U","NORAD_CAT_ID":16182,"ELEMENT_SET_NO":999,"REV_AT_EPOCH":9392,"BSTAR":-8.7222978e-5,"MEAN_MOTION_DOT":-2.22e-6,"MEAN_MOTION_DDOT":0}]
